[{"OBJECT_NAME":"ONEWEB-0628","OBJECT_ID":"2023-004AF","EPOCH":"2026-03-09T20:08:34.967040","MEAN_MOTION":13.1244175,"ECCENTRICITY":0.0001442,"INCLINATION":87.9,"RA_OF_ASC_NODE":10.3707,"ARG_OF_PERICENTER":56.858,"MEAN_ANOMALY":303.2687,"EPHEMERIS_TYPE":0,"CLASSIFICATION_TYPE":"U","NORAD_CAT_ID":55169,"ELEMENT_SET_NO":999,"REV_AT_EPOCH":15500,"BSTAR":0.00044734834,"MEAN_MOTION_DOT":1.74e-6,"MEAN_MOTION_DDOT":0},{"OBJECT_NAME":"DELTA 1 DEB","OBJECT_ID":"1977-065M","EPOCH":"2026-03-09T01:35:26.833920","MEAN_MOTION":14.02258817,"ECCENTRICITY":0.04653663,"INCLINATION":29.2135,"RA_OF_ASC_NODE":334.0643,"ARG_OF_PERICENTER":210.7683,"MEAN_ANOMALY":146.4816,"EPHEMERIS_TYPE":0,"CLASSIFICATION_TYPE":"U","NORAD_CAT_ID":10183,"ELEMENT_SET_NO":999,"REV_AT_EPOCH":39655,"BSTAR":0.00095577742,"MEAN_MOTION_DOT":4.037e-5,"MEAN_MOTION_DDOT":0}]
